{"type": "FeatureCollection", "features": [ {"type": "Feature", "properties": {"norad_id": 39620, "name": "COSMOS 2492 (754)", "group": "gnss", "lat": -43.70961405029699, "lon": 165.8989822705476, "alt_km": 19130.83443216182, "timestamp": "2025-12-21T18:54:58.739081+00:00", "meta": {"OBJECT_NAME": "COSMOS 2492 (754)", "OBJECT_ID": "2014-012A", "EPOCH": "2025-12-21T00:28:06.027744", "MEAN_MOTION": 2.13103414, "ECCENTRICITY": 0.0014234, "INCLINATION": 65.403, "RA_OF_ASC_NODE": 319.9894, "ARG_OF_PERICENTER": 312.8453, "MEAN_ANOMALY": 47.0277, "EPHEMERIS_TYPE": 0, "CLASSIFICATION_TYPE": "U", "NORAD_CAT_ID": 39620, "ELEMENT_SET_NO": 999, "REV_AT_EPOCH": 9144, "BSTAR": 0, "MEAN_MOTION_DOT": -4.8e-07, "MEAN_MOTION_DDOT": 0}, "tle": {"line1": "1 39620U 14012A   25355.01951421 -.00000048  00000+0  00000+0 0  9992", "line2": "2 39620  65.4030 319.9894 0014234 312.8453  47.0277  2.13103414 91447"}}, "geometry": {"type": "Point", "coordinates": [165.8989822705476, -43.70961405029699]}}, {"type": "Feature", "properties": {"norad_id": 39635, "name": "IRNSS-1B", "group": "gnss", "lat": -2.904646555822733, "lon": 68.71543096160275, "alt_km": 35751.24788787757, "timestamp": "2025-12-21T18:54:58.739092+00:00", "meta": {"OBJECT_NAME": "IRNSS-1B", "OBJECT_ID": "2014-017A", "EPOCH": "2025-12-20T18:37:43.503744", "MEAN_MOTION": 1.00271109, "ECCENTRICITY": 0.00186822, "INCLINATION": 29.2525, "RA_OF_ASC_NODE": 243.4669, "ARG_OF_PERICENTER": 249.4131, "MEAN_ANOMALY": 291.5281, "EPHEMERIS_TYPE": 0, "CLASSIFICATION_TYPE": "U", "NORAD_CAT_ID": 39635, "ELEMENT_SET_NO": 999, "REV_AT_EPOCH": 4300, "BSTAR": 0, "MEAN_MOTION_DOT": 1.52e-06, "MEAN_MOTION_DDOT": 0}, "tle": {"line1": "1 39635U 14017A   25354.77619796  .00000152  00000+0  00000+0 0  9996", "line2": "2 39635  29.2525 243.4669 0018682 249.4131 291.5281  1.00271109 43002"}}, "geometry": {"type": "Point", "coordinates": [68.71543096160275, -2.904646555822733]}}, {"type": "Feature", "properties": {"norad_id": 39727, "name": "LUCH 5V (SDCM/PRN 141)", "group": "gnss", "lat": 2.8842240318086327, "lon": 108.9498544282935, "alt_km": 35800.222466342595, "timestamp": "2025-12-21T18:54:58.739104+00:00", "meta": {"OBJECT_NAME": "LUCH 5V (SDCM/PRN 141)", "OBJECT_ID": "2014-023A", "EPOCH": "2025-12-21T15:40:10.355232", "MEAN_MOTION": 1.002758, "ECCENTRICITY": 0.00037012, "INCLINATION": 4.6912, "RA_OF_ASC_NODE": 71.4655, "ARG_OF_PERICENTER": 212.7065, "MEAN_ANOMALY": 136.0424, "EPHEMERIS_TYPE": 0, "CLASSIFICATION_TYPE": "U", "NORAD_CAT_ID": 39727, "ELEMENT_SET_NO": 999, "REV_AT_EPOCH": 4257, "BSTAR": 0, "MEAN_MOTION_DOT": -2.5e-06, "MEAN_MOTION_DDOT": 0}, "tle": {"line1": "1 39727U 14023A   25355.65289763 -.00000250  00000+0  00000+0 0  9990", "line2": "2 39727   4.6912  71.4655 0003701 212.7065 136.0424  1.00275800 42575"}}, "geometry": {"type": "Point", "coordinates": [108.9498544282935, 2.8842240318086327]}}, {"type": "Feature", "properties": {"norad_id": 39741, "name": "GPS BIIF-6  (PRN 06)", "group": "gnss", "lat": -39.83292773497227, "lon": -168.17444714095137, "alt_km": 20184.73565508036, "timestamp": "2025-12-21T18:54:58.739115+00:00", "meta": {"OBJECT_NAME": "GPS BIIF-6  (PRN 06)", "OBJECT_ID": "2014-026A", "EPOCH": "2025-12-18T23:24:45.525888", "MEAN_MOTION": 2.00561009, "ECCENTRICITY": 0.00393411, "INCLINATION": 56.5812, "RA_OF_ASC_NODE": 338.5339, "ARG_OF_PERICENTER": 319.0443, "MEAN_ANOMALY": 40.6665, "EPHEMERIS_TYPE": 0, "CLASSIFICATION_TYPE": "U", "NORAD_CAT_ID": 39741, "ELEMENT_SET_NO": 999, "REV_AT_EPOCH": 8492, "BSTAR": 0, "MEAN_MOTION_DOT": -8.1e-07, "MEAN_MOTION_DDOT": 0}, "tle": {"line1": "1 39741U 14026A   25352.97552692 -.00000081  00000+0  00000+0 0  9997", "line2": "2 39741  56.5812 338.5339 0039341 319.0443  40.6665  2.00561009 84924"}}, "geometry": {"type": "Point", "coordinates": [-168.17444714095137, -39.83292773497227]}}, {"type": "Feature", "properties": {"norad_id": 40001, "name": "COSMOS 2500 (755)", "group": "gnss", "lat": 64.26922823365366, "lon": 67.38975172573653, "alt_km": 19133.045060527747, "timestamp": "2025-12-21T18:54:58.739126+00:00", "meta": {"OBJECT_NAME": "COSMOS 2500 (755)", "OBJECT_ID": "2014-032A", "EPOCH": "2025-12-21T04:35:55.026240", "MEAN_MOTION": 2.13106227, "ECCENTRICITY": 0.00077299, "INCLINATION": 65.3386, "RA_OF_ASC_NODE": 319.7453, "ARG_OF_PERICENTER": 219.3736, "MEAN_ANOMALY": 140.5635, "EPHEMERIS_TYPE": 0, "CLASSIFICATION_TYPE": "U", "NORAD_CAT_ID": 40001, "ELEMENT_SET_NO": 999, "REV_AT_EPOCH": 8966, "BSTAR": 0, "MEAN_MOTION_DOT": -4.7e-07, "MEAN_MOTION_DDOT": 0}, "tle": {"line1": "1 40001U 14032A   25355.19160910 -.00000047  00000+0  00000+0 0  9992", "line2": "2 40001  65.3386 319.7453 0007729 219.3736 140.5635  2.13106227 89663"}}, "geometry": {"type": "Point", "coordinates": [67.38975172573653, 64.26922823365366]}}, {"type": "Feature", "properties": {"norad_id": 40105, "name": "GPS BIIF-7  (PRN 09)", "group": "gnss", "lat": 9.258587572810345, "lon": -90.95062832482523, "alt_km": 20123.233028349507, "timestamp": "2025-12-21T18:54:58.739139+00:00", "meta": {"OBJECT_NAME": "GPS BIIF-7  (PRN 09)", "OBJECT_ID": "2014-045A", "EPOCH": "2025-12-21T01:21:54.490752", "MEAN_MOTION": 2.00573117, "ECCENTRICITY": 0.00324545, "INCLINATION": 55.2339, "RA_OF_ASC_NODE": 95.5671, "ARG_OF_PERICENTER": 120.1188, "MEAN_ANOMALY": 240.1998, "EPHEMERIS_TYPE": 0, "CLASSIFICATION_TYPE": "U", "NORAD_CAT_ID": 40105, "ELEMENT_SET_NO": 999, "REV_AT_EPOCH": 8250, "BSTAR": 0, "MEAN_MOTION_DOT": -1.2e-07, "MEAN_MOTION_DDOT": 0}, "tle": {"line1": "1 40105U 14045A   25355.05688068 -.00000012  00000+0  00000+0 0  9997", "line2": "2 40105  55.2339  95.5671 0032454 120.1188 240.1998  2.00573117 82505"}}, "geometry": {"type": "Point", "coordinates": [-90.95062832482523, 9.258587572810345]}}, {"type": "Feature", "properties": {"norad_id": 40128, "name": "GSAT0201 (GALILEO 5)", "group": "gnss", "lat": 17.870885952503247, "lon": 84.46206867574723, "alt_km": 17113.811203098154, "timestamp": "2025-12-21T18:54:58.739152+00:00", "meta": {"OBJECT_NAME": "GSAT0201 (GALILEO 5)", "OBJECT_ID": "2014-050A", "EPOCH": "2025-12-21T00:18:08.005824", "MEAN_MOTION": 1.85519694, "ECCENTRICITY": 0.16487459, "INCLINATION": 49.0672, "RA_OF_ASC_NODE": 280.7264, "ARG_OF_PERICENTER": 172.5923, "MEAN_ANOMALY": 190.2386, "EPHEMERIS_TYPE": 0, "CLASSIFICATION_TYPE": "U", "NORAD_CAT_ID": 40128, "ELEMENT_SET_NO": 999, "REV_AT_EPOCH": 7501, "BSTAR": 0, "MEAN_MOTION_DOT": -4.1e-07, "MEAN_MOTION_DDOT": 0}, "tle": {"line1": "1 40128U 14050A   25355.01259266 -.00000041  00000+0  00000+0 0  9990", "line2": "2 40128  49.0672 280.7264 1648745 172.5923 190.2386  1.85519694 75018"}}, "geometry": {"type": "Point", "coordinates": [84.46206867574723, 17.870885952503247]}}, {"type": "Feature", "properties": {"norad_id": 40129, "name": "GSAT0202 (GALILEO 6)", "group": "gnss", "lat": -7.183077833713665, "lon": -86.49666596275853, "alt_km": 26215.872742679847, "timestamp": "2025-12-21T18:54:58.739163+00:00", "meta": {"OBJECT_NAME": "GSAT0202 (GALILEO 6)", "OBJECT_ID": "2014-050B", "EPOCH": "2025-12-18T13:46:22.484640", "MEAN_MOTION": 1.85520466, "ECCENTRICITY": 0.16491259, "INCLINATION": 49.0858, "RA_OF_ASC_NODE": 279.9095, "ARG_OF_PERICENTER": 173.2442, "MEAN_ANOMALY": 189.3393, "EPHEMERIS_TYPE": 0, "CLASSIFICATION_TYPE": "U", "NORAD_CAT_ID": 40129, "ELEMENT_SET_NO": 999, "REV_AT_EPOCH": 7713, "BSTAR": 0, "MEAN_MOTION_DOT": -5.9e-07, "MEAN_MOTION_DDOT": 0}, "tle": {"line1": "1 40129U 14050B   25352.57387135 -.00000059  00000+0  00000+0 0  9995", "line2": "2 40129  49.0858 279.9095 1649125 173.2442 189.3393  1.85520466 77135"}}, "geometry": {"type": "Point", "coordinates": [-86.49666596275853, -7.183077833713665]}}, {"type": "Feature", "properties": {"norad_id": 40269, "name": "IRNSS-1C", "group": "gnss", "lat": 0.5453752754256795, "lon": 97.32560806734655, "alt_km": 35709.09989948026, "timestamp": "2025-12-21T18:54:58.739175+00:00", "meta": {"OBJECT_NAME": "IRNSS-1C", "OBJECT_ID": "2014-061A", "EPOCH": "2025-12-21T08:27:19.127808", "MEAN_MOTION": 1.00273843, "ECCENTRICITY": 0.00180572, "INCLINATION": 6.0636, "RA_OF_ASC_NODE": 92.4493, "ARG_OF_PERICENTER": 1.1608, "MEAN_ANOMALY": 206.3842, "EPHEMERIS_TYPE": 0, "CLASSIFICATION_TYPE": "U", "NORAD_CAT_ID": 40269, "ELEMENT_SET_NO": 999, "REV_AT_EPOCH": 4090, "BSTAR": 0, "MEAN_MOTION_DOT": -1.44e-06, "MEAN_MOTION_DDOT": 0}, "tle": {"line1": "1 40269U 14061A   25355.35230472 -.00000144  00000+0  00000+0 0  9997", "line2": "2 40269   6.0636  92.4493 0018057   1.1608 206.3842  1.00273843 40908"}}, "geometry": {"type": "Point", "coordinates": [97.32560806734655, 0.5453752754256795]}}, {"type": "Feature", "properties": {"norad_id": 40294, "name": "GPS BIIF-8  (PRN 03)", "group": "gnss", "lat": -54.51966945640277, "lon": -75.85021209056659, "alt_km": 20348.397932619187, "timestamp": "2025-12-21T18:54:58.739185+00:00", "meta": {"OBJECT_NAME": "GPS BIIF-8  (PRN 03)", "OBJECT_ID": "2014-068A", "EPOCH": "2025-12-21T10:24:33.832224", "MEAN_MOTION": 2.00565456, "ECCENTRICITY": 0.00608151, "INCLINATION": 56.8641, "RA_OF_ASC_NODE": 37.8098, "ARG_OF_PERICENTER": 69.0115, "MEAN_ANOMALY": 291.7086, "EPHEMERIS_TYPE": 0, "CLASSIFICATION_TYPE": "U", "NORAD_CAT_ID": 40294, "ELEMENT_SET_NO": 999, "REV_AT_EPOCH": 8164, "BSTAR": 0, "MEAN_MOTION_DOT": -5.2e-07, "MEAN_MOTION_DDOT": 0}, "tle": {"line1": "1 40294U 14068A   25355.43372491 -.00000052  00000+0  00000+0 0  9997", "line2": "2 40294  56.8641  37.8098 0060815  69.0115 291.7086  2.00565456 81643"}}, "geometry": {"type": "Point", "coordinates": [-75.85021209056659, -54.51966945640277]}}]}